{
"type": "FeatureCollection",
"name": "kisumu_outlet_density_grid",
"crs": { "type": "name", "properties": { "name": "urn:ogc:def:crs:OGC:1.3:CRS84" } },
"features": [
{ "type": "Feature", "properties": { "grid_id": "0_20", "col": 0, "row": 20, "outlet_count": 1 }, "geometry": { "type": "Polygon", "coordinates": [ [ [ 34.684738860863199, -0.076909595229672 ], [ 34.68473868874716, -0.072387907097302 ], [ 34.680247261667802, -0.072388074901532 ], [ 34.680247433325512, -0.076909773515753 ], [ 34.684738860863199, -0.076909595229672 ] ] ] } },
{ "type": "Feature", "properties": { "grid_id": "0_28", "col": 0, "row": 28, "outlet_count": 4 }, "geometry": { "type": "Polygon", "coordinates": [ [ [ 34.684737775851083, -0.040736089939435 ], [ 34.684737687139616, -0.036214401748061 ], [ 34.680246262727429, -0.036214485697546 ], [ 34.680246351202669, -0.040736184370758 ], [ 34.684737775851083, -0.040736089939435 ] ] ] } },
{ "type": "Feature", "properties": { "grid_id": "1_20", "col": 1, "row": 20, "outlet_count": 1 }, "geometry": { "type": "Polygon", "coordinates": [ [ [ 34.689230277975298, -0.076909416468205 ], [ 34.689230105400938, -0.072387738845634 ], [ 34.68473868874716, -0.072387907097302 ], [ 34.684738860863199, -0.076909595229672 ], [ 34.689230277975298, -0.076909416468205 ] ] ] } },
{ "type": "Feature", "properties": { "grid_id": "2_19", "col": 2, "row": 19, "outlet_count": 2 }, "geometry": { "type": "Polygon", "coordinates": [ [ [ 34.693721868147819, -0.081430904306146 ], [ 34.693721684634028, -0.076909237231357 ], [ 34.689230277975298, -0.076909416468205 ], [ 34.689230461003007, -0.081431094080744 ], [ 34.693721868147819, -0.081430904306146 ] ] ] } },
{ "type": "Feature", "properties": { "grid_id": "2_20", "col": 2, "row": 20, "outlet_count": 1 }, "geometry": { "type": "Polygon", "coordinates": [ [ [ 34.693721684634028, -0.076909237231357 ], [ 34.69372151160136, -0.072387570146535 ], [ 34.689230105400938, -0.072387738845634 ], [ 34.689230277975298, -0.076909416468205 ], [ 34.693721684634028, -0.076909237231357 ] ] ] } },
{ "type": "Feature", "properties": { "grid_id": "2_44", "col": 2, "row": 44, "outlet_count": 1 }, "geometry": { "type": "Polygon", "coordinates": [ [ [ 34.693720424629603, 0.031610774216772 ], [ 34.693720503142849, 0.036132441365426 ], [ 34.689229099613542, 0.036132525571982 ], [ 34.689229021308265, 0.031610847885593 ], [ 34.693720424629603, 0.031610774216772 ] ] ] } },
{ "type": "Feature", "properties": { "grid_id": "3_19", "col": 3, "row": 19, "outlet_count": 1 }, "geometry": { "type": "Polygon", "coordinates": [ [ [ 34.698213264811514, -0.081430714028224 ], [ 34.698213080811662, -0.076909057519134 ], [ 34.693721684634028, -0.076909237231357 ], [ 34.693721868147819, -0.081430904306146 ], [ 34.698213264811514, -0.081430714028224 ] ] ] } },
{ "type": "Feature", "properties": { "grid_id": "3_20", "col": 3, "row": 20, "outlet_count": 1 }, "geometry": { "type": "Polygon", "coordinates": [ [ [ 34.698213080811662, -0.076909057519134 ], [ 34.698212907320681, -0.072387401 ], [ 34.69372151160136, -0.072387570146535 ], [ 34.693721684634028, -0.076909237231357 ], [ 34.698213080811662, -0.076909057519134 ] ] ] } },
{ "type": "Feature", "properties": { "grid_id": "5_22", "col": 5, "row": 22, "outlet_count": 1 }, "geometry": { "type": "Polygon", "coordinates": [ [ [ 34.707195503361739, -0.067865426051363 ], [ 34.707195350082934, -0.063343790729169 ], [ 34.702703976242439, -0.063343939527352 ], [ 34.702704129118466, -0.067865585471136 ], [ 34.707195503361739, -0.067865426051363 ] ] ] } },
{ "type": "Feature", "properties": { "grid_id": "5_28", "col": 5, "row": 28, "outlet_count": 1 }, "geometry": { "type": "Polygon", "coordinates": [ [ [ 34.707194742154577, -0.040735614005971 ], [ 34.707194652262011, -0.036213978643018 ], [ 34.702703280255214, -0.036214063711701 ], [ 34.702703369911561, -0.040735709696234 ], [ 34.707194742154577, -0.040735614005971 ] ] ] } },
{ "type": "Feature", "properties": { "grid_id": "5_29", "col": 5, "row": 29, "outlet_count": 2 }, "geometry": { "type": "Polygon", "coordinates": [ [ [ 34.707194652262011, -0.036213978643018 ], [ 34.707194572933808, -0.031692343275339 ], [ 34.702703201135456, -0.031692417722442 ], [ 34.702703280255214, -0.036214063711701 ], [ 34.707194652262011, -0.036213978643018 ] ] ] } },
{ "type": "Feature", "properties": { "grid_id": "6_19", "col": 6, "row": 19, "outlet_count": 1 }, "geometry": { "type": "Polygon", "coordinates": [ [ [ 34.711687391638264, -0.081430140174577 ], [ 34.71168720618023, -0.076908515530272 ], [ 34.707195841612517, -0.076908696668586 ], [ 34.707196026584498, -0.081430331962434 ], [ 34.711687391638264, -0.081430140174577 ] ] ] } },
{ "type": "Feature", "properties": { "grid_id": "6_20", "col": 6, "row": 20, "outlet_count": 7 }, "geometry": { "type": "Polygon", "coordinates": [ [ [ 34.71168720618023, -0.076908515530272 ], [ 34.711687031314348, -0.072386890875925 ], [ 34.707195667204928, -0.072387061364699 ], [ 34.707195841612517, -0.076908696668586 ], [ 34.71168720618023, -0.076908515530272 ] ] ] } },
{ "type": "Feature", "properties": { "grid_id": "10_18", "col": 10, "row": 18, "outlet_count": 5 }, "geometry": { "type": "Polygon", "coordinates": [ [ [ 34.729652943759483, -0.085950949746239 ], [ 34.729652745654086, -0.081429367990212 ], [ 34.725161423135532, -0.081429561791232 ], [ 34.725161620727143, -0.08595115430859 ], [ 34.729652943759483, -0.085950949746239 ] ] ] } },
{ "type": "Feature", "properties": { "grid_id": "10_19", "col": 10, "row": 19, "outlet_count": 1 }, "geometry": { "type": "Polygon", "coordinates": [ [ [ 34.729652745654086, -0.081429367990212 ], [ 34.729652558251892, -0.076907786223544 ], [ 34.725161236219371, -0.076907969263235 ], [ 34.725161423135532, -0.081429561791232 ], [ 34.729652745654086, -0.081429367990212 ] ] ] } },
{ "type": "Feature", "properties": { "grid_id": "10_20", "col": 10, "row": 20, "outlet_count": 2 }, "geometry": { "type": "Polygon", "coordinates": [ [ [ 34.729652558251892, -0.076907786223544 ], [ 34.729652381552896, -0.072386204446826 ], [ 34.725161059978646, -0.072386376725191 ], [ 34.725161236219371, -0.076907969263235 ], [ 34.729652558251892, -0.076907786223544 ] ] ] } },
{ "type": "Feature", "properties": { "grid_id": "11_19", "col": 11, "row": 19, "outlet_count": 1 }, "geometry": { "type": "Polygon", "coordinates": [ [ [ 34.734144057469436, -0.081429173685916 ], [ 34.734143869581217, -0.076907602708522 ], [ 34.729652558251892, -0.076907786223544 ], [ 34.729652745654086, -0.081429367990212 ], [ 34.734144057469436, -0.081429173685916 ] ] ] } },
{ "type": "Feature", "properties": { "grid_id": "11_20", "col": 11, "row": 20, "outlet_count": 1 }, "geometry": { "type": "Polygon", "coordinates": [ [ [ 34.734143869581217, -0.076907602708522 ], [ 34.734143692423949, -0.072386031721076 ], [ 34.729652381552896, -0.072386204446826 ], [ 34.729652558251892, -0.076907786223544 ], [ 34.734143869581217, -0.076907602708522 ] ] ] } },
{ "type": "Feature", "properties": { "grid_id": "12_5", "col": 12, "row": 5, "outlet_count": 4 }, "geometry": { "type": "Polygon", "coordinates": [ [ [ 34.738639125461866, -0.144730819734045 ], [ 34.738638786464897, -0.1402092597767 ], [ 34.734147476536236, -0.140209595208382 ], [ 34.734147814658584, -0.144731165982991 ], [ 34.738639125461866, -0.144730819734045 ] ] ] } },
{ "type": "Feature", "properties": { "grid_id": "13_6", "col": 13, "row": 6, "outlet_count": 2 }, "geometry": { "type": "Polygon", "coordinates": [ [ [ 34.743130085634725, -0.140208923478466 ], [ 34.743129756549692, -0.135687374347996 ], [ 34.738638458226738, -0.135687699801025 ], [ 34.738638786464897, -0.1402092597767 ], [ 34.743130085634725, -0.140208923478466 ] ] ] } },
{ "type": "Feature", "properties": { "grid_id": "13_7", "col": 13, "row": 7, "outlet_count": 2 }, "geometry": { "type": "Polygon", "coordinates": [ [ [ 34.743129756549692, -0.135687374347996 ], [ 34.743129438251245, -0.131165825199784 ], [ 34.738638140747398, -0.131166139807611 ], [ 34.738638458226738, -0.135687699801025 ], [ 34.743129756549692, -0.135687374347996 ] ] ] } },
{ "type": "Feature", "properties": { "grid_id": "13_17", "col": 13, "row": 17, "outlet_count": 1 }, "geometry": { "type": "Polygon", "coordinates": [ [ [ 34.743127058959445, -0.090471882165001 ], [ 34.743126848526231, -0.085950332871879 ], [ 34.738635557686784, -0.085950539027877 ], [ 34.738635767578472, -0.090472099166169 ], [ 34.743127058959445, -0.090471882165001 ] ] ] } },
{ "type": "Feature", "properties": { "grid_id": "13_19", "col": 13, "row": 19, "outlet_count": 1 }, "geometry": { "type": "Polygon", "coordinates": [ [ [ 34.743126648879496, -0.081428783567519 ], [ 34.743126460019248, -0.07690723425251 ], [ 34.738635170179592, -0.076907418718176 ], [ 34.738635358553829, -0.081428978878349 ], [ 34.743126648879496, -0.081428783567519 ] ] ] } },
{ "type": "Feature", "properties": { "grid_id": "13_36", "col": 13, "row": 36, "outlet_count": 1 }, "geometry": { "type": "Polygon", "coordinates": [ [ [ 34.743124905212298, -0.00456244424673 ], [ 34.743124899721529, -0.000040894841169 ], [ 34.738633613897143, -0.000040894939257 ], [ 34.738633619373786, -0.004562455189963 ], [ 34.743124905212298, -0.00456244424673 ] ] ] } },
{ "type": "Feature", "properties": { "grid_id": "14_7", "col": 14, "row": 7, "outlet_count": 5 }, "geometry": { "type": "Polygon", "coordinates": [ [ [ 34.747621044086088, -0.135687048056372 ], [ 34.747620724968534, -0.131165509781306 ], [ 34.743129438251245, -0.131165825199784 ], [ 34.743129756549692, -0.135687374347996 ], [ 34.747621044086088, -0.135687048056372 ] ] ] } },
{ "type": "Feature", "properties": { "grid_id": "14_8", "col": 14, "row": 8, "outlet_count": 4 }, "geometry": { "type": "Polygon", "coordinates": [ [ [ 34.747620724968534, -0.131165509781306 ], [ 34.747620416665306, -0.126643971489084 ], [ 34.743129130739362, -0.126644276034419 ], [ 34.743129438251245, -0.131165825199784 ], [ 34.747620724968534, -0.131165509781306 ] ] ] } },
{ "type": "Feature", "properties": { "grid_id": "14_10", "col": 14, "row": 10, "outlet_count": 2 }, "geometry": { "type": "Polygon", "coordinates": [ [ [ 34.747620119176389, -0.122122433180298 ], [ 34.747619832501769, -0.11760089485554 ], [ 34.743128548075234, -0.117601177654601 ], [ 34.74312883401403, -0.122122726852495 ], [ 34.747620119176389, -0.122122433180298 ] ] ] } },
{ "type": "Feature", "properties": { "grid_id": "14_19", "col": 14, "row": 19, "outlet_count": 2 }, "geometry": { "type": "Polygon", "coordinates": [ [ [ 34.747617928418691, -0.08142858775343 ], [ 34.747617739072432, -0.076907049311531 ], [ 34.743126460019248, -0.07690723425251 ], [ 34.743126648879496, -0.081428783567519 ], [ 34.747617928418691, -0.08142858775343 ] ] ] } },
{ "type": "Feature", "properties": { "grid_id": "14_31", "col": 14, "row": 31, "outlet_count": 10 }, "geometry": { "type": "Polygon", "coordinates": [ [ [ 34.747616370001602, -0.027170125916871 ], [ 34.747616310425791, -0.022648587393298 ], [ 34.743125035039611, -0.022648641857093 ], [ 34.743125094462499, -0.027170191253758 ], [ 34.747616370001602, -0.027170125916871 ] ] ] } },
{ "type": "Feature", "properties": { "grid_id": "15_8", "col": 15, "row": 8, "outlet_count": 5 }, "geometry": { "type": "Polygon", "coordinates": [ [ [ 34.752112000871506, -0.131165193552186 ], [ 34.752111691776939, -0.126643666161051 ], [ 34.747620416665306, -0.126643971489084 ], [ 34.747620724968534, -0.131165509781306 ], [ 34.752112000871506, -0.131165193552186 ] ] ] } },
{ "type": "Feature", "properties": { "grid_id": "15_9", "col": 15, "row": 9, "outlet_count": 1 }, "geometry": { "type": "Polygon", "coordinates": [ [ [ 34.752111691776939, -0.126643666161051 ], [ 34.752111393524444, -0.122122138753349 ], [ 34.747620119176389, -0.122122433180298 ], [ 34.747620416665306, -0.126643971489084 ], [ 34.752111691776939, -0.126643666161051 ] ] ] } },
{ "type": "Feature", "properties": { "grid_id": "15_13", "col": 15, "row": 13, "outlet_count": 10 }, "geometry": { "type": "Polygon", "coordinates": [ [ [ 34.752110563819279, -0.108557556436752 ], [ 34.752110308934967, -0.104036028968695 ], [ 34.747619037363634, -0.104036279791344 ], [ 34.747619291595399, -0.108557818160472 ], [ 34.752110563819279, -0.108557556436752 ] ] ] } },
{ "type": "Feature", "properties": { "grid_id": "15_14", "col": 15, "row": 14, "outlet_count": 15 }, "geometry": { "type": "Polygon", "coordinates": [ [ [ 34.752110308934967, -0.104036028968695 ], [ 34.752110064892683, -0.099514501487028 ], [ 34.747618793946138, -0.09951474140861 ], [ 34.747619037363634, -0.104036279791344 ], [ 34.752110308934967, -0.104036028968695 ] ] ] } },
{ "type": "Feature", "properties": { "grid_id": "15_15", "col": 15, "row": 15, "outlet_count": 34 }, "geometry": { "type": "Polygon", "coordinates": [ [ [ 34.752110064892683, -0.099514501487028 ], [ 34.752109831692415, -0.094992973992342 ], [ 34.747618561342904, -0.09499320301286 ], [ 34.747618793946138, -0.09951474140861 ], [ 34.752110064892683, -0.099514501487028 ] ] ] } },
{ "type": "Feature", "properties": { "grid_id": "15_31", "col": 15, "row": 31, "outlet_count": 1 }, "geometry": { "type": "Polygon", "coordinates": [ [ [ 34.752107634726514, -0.027170060412066 ], [ 34.752107574997794, -0.022648532789529 ], [ 34.747616310425791, -0.022648587393298 ], [ 34.747616370001602, -0.027170125916871 ], [ 34.752107634726514, -0.027170060412066 ] ] ] } },
{ "type": "Feature", "properties": { "grid_id": "16_8", "col": 16, "row": 8, "outlet_count": 1 }, "geometry": { "type": "Polygon", "coordinates": [ [ [ 34.756603265932391, -0.131164876512435 ], [ 34.756602956046507, -0.126643360050332 ], [ 34.752111691776939, -0.126643666161051 ], [ 34.752112000871506, -0.131165193552186 ], [ 34.756603265932391, -0.131164876512435 ] ] ] } },
{ "type": "Feature", "properties": { "grid_id": "16_9", "col": 16, "row": 9, "outlet_count": 20 }, "geometry": { "type": "Polygon", "coordinates": [ [ [ 34.756602956046507, -0.126643360050332 ], [ 34.756602657030442, -0.122121843571657 ], [ 34.752111393524444, -0.122122138753349 ], [ 34.752111691776939, -0.126643666161051 ], [ 34.756602956046507, -0.126643360050332 ] ] ] } },
{ "type": "Feature", "properties": { "grid_id": "16_10", "col": 16, "row": 10, "outlet_count": 5 }, "geometry": { "type": "Polygon", "coordinates": [ [ [ 34.756602657030442, -0.122121843571657 ], [ 34.756602368884195, -0.117600327077002 ], [ 34.752111106114008, -0.117600611329671 ], [ 34.752111393524444, -0.122122138753349 ], [ 34.756602657030442, -0.122121843571657 ] ] ] } },
{ "type": "Feature", "properties": { "grid_id": "16_13", "col": 16, "row": 13, "outlet_count": 26 }, "geometry": { "type": "Polygon", "coordinates": [ [ [ 34.756601825201123, -0.108557294042122 ], [ 34.756601569664269, -0.104035777503079 ], [ 34.752110308934967, -0.104036028968695 ], [ 34.752110563819279, -0.108557556436752 ], [ 34.756601825201123, -0.108557294042122 ] ] ] } },
{ "type": "Feature", "properties": { "grid_id": "16_14", "col": 16, "row": 14, "outlet_count": 55 }, "geometry": { "type": "Polygon", "coordinates": [ [ [ 34.756601569664269, -0.104035777503079 ], [ 34.756601324997206, -0.099514260950423 ], [ 34.752110064892683, -0.099514501487028 ], [ 34.752110308934967, -0.104036028968695 ], [ 34.756601569664269, -0.104035777503079 ] ] ] } },
{ "type": "Feature", "properties": { "grid_id": "16_15", "col": 16, "row": 15, "outlet_count": 73 }, "geometry": { "type": "Polygon", "coordinates": [ [ [ 34.756601324997206, -0.099514260950423 ], [ 34.756601091199911, -0.094992744384746 ], [ 34.752109831692415, -0.094992973992342 ], [ 34.752110064892683, -0.099514501487028 ], [ 34.756601324997206, -0.099514260950423 ] ] ] } },
{ "type": "Feature", "properties": { "grid_id": "16_16", "col": 16, "row": 16, "outlet_count": 20 }, "geometry": { "type": "Polygon", "coordinates": [ [ [ 34.756601091199911, -0.094992744384746 ], [ 34.756600868272393, -0.090471227806639 ], [ 34.752109609334155, -0.09047144648523 ], [ 34.752109831692415, -0.094992973992342 ], [ 34.756601091199911, -0.094992744384746 ] ] ] } },
{ "type": "Feature", "properties": { "grid_id": "16_19", "col": 16, "row": 19, "outlet_count": 1 }, "geometry": { "type": "Polygon", "coordinates": [ [ [ 34.756600455026621, -0.081428194615503 ], [ 34.756600264708368, -0.076906678003657 ], [ 34.75210900731139, -0.076906863895245 ], [ 34.752109197143653, -0.08142839143609 ], [ 34.756600455026621, -0.081428194615503 ] ] ] } },
{ "type": "Feature", "properties": { "grid_id": "16_24", "col": 16, "row": 24, "outlet_count": 1 }, "geometry": { "type": "Polygon", "coordinates": [ [ [ 34.756599612132703, -0.058820611461558 ], [ 34.756599476163103, -0.054299094805312 ], [ 34.75210822077976, -0.054299226051939 ], [ 34.752108356402147, -0.058820753637173 ], [ 34.756599612132703, -0.058820611461558 ] ] ] } },
{ "type": "Feature", "properties": { "grid_id": "17_9", "col": 17, "row": 9, "outlet_count": 3 }, "geometry": { "type": "Polygon", "coordinates": [ [ [ 34.761094209446242, -0.126643053156934 ], [ 34.761093909666627, -0.12212154763523 ], [ 34.756602657030442, -0.122121843571657 ], [ 34.756602956046507, -0.126643360050332 ], [ 34.761094209446242, -0.126643053156934 ] ] ] } },
{ "type": "Feature", "properties": { "grid_id": "17_10", "col": 17, "row": 10, "outlet_count": 7 }, "geometry": { "type": "Polygon", "coordinates": [ [ [ 34.761093909666627, -0.12212154763523 ], [ 34.761093620784578, -0.117600042097544 ], [ 34.756602368884195, -0.117600327077002 ], [ 34.756602657030442, -0.122121843571657 ], [ 34.761093909666627, -0.12212154763523 ] ] ] } },
{ "type": "Feature", "properties": { "grid_id": "17_11", "col": 17, "row": 11, "outlet_count": 5 }, "geometry": { "type": "Polygon", "coordinates": [ [ [ 34.761093620784578, -0.117600042097544 ], [ 34.761093342800095, -0.113078536544466 ], [ 34.75660209160776, -0.11307881056696 ], [ 34.756602368884195, -0.117600327077002 ], [ 34.761093620784578, -0.117600042097544 ] ] ] } },
{ "type": "Feature", "properties": { "grid_id": "17_14", "col": 17, "row": 14, "outlet_count": 17 }, "geometry": { "type": "Polygon", "coordinates": [ [ [ 34.761092819523789, -0.104035525394504 ], [ 34.761092574231952, -0.099514019798803 ], [ 34.756601324997206, -0.099514260950423 ], [ 34.756601569664269, -0.104035777503079 ], [ 34.761092819523789, -0.104035525394504 ] ] ] } },
{ "type": "Feature", "properties": { "grid_id": "17_15", "col": 17, "row": 15, "outlet_count": 1 }, "geometry": { "type": "Polygon", "coordinates": [ [ [ 34.761092574231952, -0.099514019798803 ], [ 34.761092339837646, -0.094992514190078 ], [ 34.756601091199911, -0.094992744384746 ], [ 34.756601324997206, -0.099514260950423 ], [ 34.761092574231952, -0.099514019798803 ] ] ] } },
{ "type": "Feature", "properties": { "grid_id": "17_16", "col": 17, "row": 16, "outlet_count": 4 }, "geometry": { "type": "Polygon", "coordinates": [ [ [ 34.761092339837646, -0.094992514190078 ], [ 34.761092116340862, -0.090471008568921 ], [ 34.756600868272393, -0.090471227806639 ], [ 34.756601091199911, -0.094992744384746 ], [ 34.761092339837646, -0.094992514190078 ] ] ] } },
{ "type": "Feature", "properties": { "grid_id": "17_17", "col": 17, "row": 17, "outlet_count": 3 }, "geometry": { "type": "Polygon", "coordinates": [ [ [ 34.761092116340862, -0.090471008568921 ], [ 34.761091903741601, -0.085949502935923 ], [ 34.75660065621463, -0.085949711216694 ], [ 34.756600868272393, -0.090471227806639 ], [ 34.761092116340862, -0.090471008568921 ] ] ] } },
{ "type": "Feature", "properties": { "grid_id": "17_19", "col": 17, "row": 19, "outlet_count": 1 }, "geometry": { "type": "Polygon", "coordinates": [ [ [ 34.761091702039842, -0.081427997291676 ], [ 34.761091511235591, -0.076906491636772 ], [ 34.756600264708368, -0.076906678003657 ], [ 34.756600455026621, -0.081428194615503 ], [ 34.761091702039842, -0.081427997291676 ] ] ] } },
{ "type": "Feature", "properties": { "grid_id": "17_28", "col": 17, "row": 28, "outlet_count": 1 }, "geometry": { "type": "Polygon", "coordinates": [ [ [ 34.761090377111152, -0.040734446084898 ], [ 34.761090284384224, -0.036212940360709 ], [ 34.756599040981861, -0.036213028115198 ], [ 34.756599133472605, -0.040734544796313 ], [ 34.761090377111152, -0.040734446084898 ] ] ] } },
{ "type": "Feature", "properties": { "grid_id": "18_10", "col": 18, "row": 10, "outlet_count": 2 }, "geometry": { "type": "Polygon", "coordinates": [ [ [ 34.765585151405233, -0.122121250944078 ], [ 34.765584861787396, -0.117599756391303 ], [ 34.761093620784578, -0.117600042097544 ], [ 34.761093909666627, -0.12212154763523 ], [ 34.765585151405233, -0.122121250944078 ] ] ] } },
{ "type": "Feature", "properties": { "grid_id": "18_11", "col": 18, "row": 11, "outlet_count": 3 }, "geometry": { "type": "Polygon", "coordinates": [ [ [ 34.765584861787396, -0.117599756391303 ], [ 34.765584583094885, -0.113078261823133 ], [ 34.761093342800095, -0.113078536544466 ], [ 34.761093620784578, -0.117600042097544 ], [ 34.765584861787396, -0.117599756391303 ] ] ] } },
{ "type": "Feature", "properties": { "grid_id": "18_12", "col": 18, "row": 12, "outlet_count": 2 }, "geometry": { "type": "Polygon", "coordinates": [ [ [ 34.765584583094885, -0.113078261823133 ], [ 34.765584315327679, -0.108556767240161 ], [ 34.76109307571317, -0.108557030976589 ], [ 34.761093342800095, -0.113078536544466 ], [ 34.765584583094885, -0.113078261823133 ] ] ] } },
{ "type": "Feature", "properties": { "grid_id": "18_14", "col": 18, "row": 14, "outlet_count": 2 }, "geometry": { "type": "Polygon", "coordinates": [ [ [ 34.765584058485778, -0.104035272642978 ], [ 34.765583812569169, -0.099513778032176 ], [ 34.761092574231952, -0.099514019798803 ], [ 34.761092819523789, -0.104035525394504 ], [ 34.765584058485778, -0.104035272642978 ] ] ] } },
{ "type": "Feature", "properties": { "grid_id": "18_15", "col": 18, "row": 15, "outlet_count": 11 }, "geometry": { "type": "Polygon", "coordinates": [ [ [ 34.765583812569169, -0.099513778032176 ], [ 34.76558357757785, -0.094992283408346 ], [ 34.761092339837646, -0.094992514190078 ], [ 34.761092574231952, -0.099514019798803 ], [ 34.765583812569169, -0.099513778032176 ] ] ] } },
{ "type": "Feature", "properties": { "grid_id": "18_16", "col": 18, "row": 16, "outlet_count": 4 }, "geometry": { "type": "Polygon", "coordinates": [ [ [ 34.76558357757785, -0.094992283408346 ], [ 34.765583353511815, -0.090470788772082 ], [ 34.761092116340862, -0.090471008568921 ], [ 34.761092339837646, -0.094992514190078 ], [ 34.76558357757785, -0.094992283408346 ] ] ] } },
{ "type": "Feature", "properties": { "grid_id": "18_17", "col": 18, "row": 17, "outlet_count": 3 }, "geometry": { "type": "Polygon", "coordinates": [ [ [ 34.765583353511815, -0.090470788772082 ], [ 34.765583140371056, -0.085949294123975 ], [ 34.761091903741601, -0.085949502935923 ], [ 34.761092116340862, -0.090471008568921 ], [ 34.765583353511815, -0.090470788772082 ] ] ] } },
{ "type": "Feature", "properties": { "grid_id": "18_18", "col": 18, "row": 18, "outlet_count": 6 }, "geometry": { "type": "Polygon", "coordinates": [ [ [ 34.765583140371056, -0.085949294123975 ], [ 34.765582938155561, -0.081427799464616 ], [ 34.761091702039842, -0.081427997291676 ], [ 34.761091903741601, -0.085949502935923 ], [ 34.765583140371056, -0.085949294123975 ] ] ] } },
{ "type": "Feature", "properties": { "grid_id": "18_19", "col": 18, "row": 19, "outlet_count": 10 }, "geometry": { "type": "Polygon", "coordinates": [ [ [ 34.765582938155561, -0.081427799464616 ], [ 34.76558274686532, -0.076906304794598 ], [ 34.761091511235591, -0.076906491636772 ], [ 34.761091702039842, -0.081427997291676 ], [ 34.765582938155561, -0.081427799464616 ] ] ] } },
{ "type": "Feature", "properties": { "grid_id": "18_22", "col": 18, "row": 22, "outlet_count": 1 }, "geometry": { "type": "Polygon", "coordinates": [ [ [ 34.765582397060619, -0.06786331542495 ], [ 34.765582238546138, -0.063341820726505 ], [ 34.761091004207827, -0.063341974614036 ], [ 34.761091162319588, -0.067863480297361 ], [ 34.765582397060619, -0.06786331542495 ] ] ] } },
{ "type": "Feature", "properties": { "grid_id": "18_26", "col": 18, "row": 26, "outlet_count": 1 }, "geometry": { "type": "Polygon", "coordinates": [ [ [ 34.765581828554105, -0.049777336583786 ], [ 34.765581713740559, -0.045255841855724 ], [ 34.761090480735547, -0.045255951803755 ], [ 34.7610905952574, -0.049777457516689 ], [ 34.765581828554105, -0.049777336583786 ] ] ] } },
{ "type": "Feature", "properties": { "grid_id": "19_11", "col": 19, "row": 11, "outlet_count": 3 }, "geometry": { "type": "Polygon", "coordinates": [ [ [ 34.770076091864901, -0.11759946995829 ], [ 34.770075812464349, -0.113077986402971 ], [ 34.765584583094885, -0.113078261823133 ], [ 34.765584861787396, -0.117599756391303 ], [ 34.770076091864901, -0.11759946995829 ] ] ] } },
{ "type": "Feature", "properties": { "grid_id": "19_12", "col": 19, "row": 12, "outlet_count": 17 }, "geometry": { "type": "Polygon", "coordinates": [ [ [ 34.770075812464349, -0.113077986402971 ], [ 34.770075544016876, -0.108556502832847 ], [ 34.765584315327679, -0.108556767240161 ], [ 34.765584583094885, -0.113078261823133 ], [ 34.770075812464349, -0.113077986402971 ] ] ] } },
{ "type": "Feature", "properties": { "grid_id": "19_13", "col": 19, "row": 13, "outlet_count": 11 }, "geometry": { "type": "Polygon", "coordinates": [ [ [ 34.770075544016876, -0.108556502832847 ], [ 34.770075286522463, -0.104035019248508 ], [ 34.765584058485778, -0.104035272642978 ], [ 34.765584315327679, -0.108556767240161 ], [ 34.770075544016876, -0.108556502832847 ] ] ] } },
{ "type": "Feature", "properties": { "grid_id": "19_14", "col": 19, "row": 14, "outlet_count": 4 }, "geometry": { "type": "Polygon", "coordinates": [ [ [ 34.770075286522463, -0.104035019248508 ], [ 34.770075039981094, -0.099513535650548 ], [ 34.765583812569169, -0.099513778032176 ], [ 34.765584058485778, -0.104035272642978 ], [ 34.770075286522463, -0.104035019248508 ] ] ] } },
{ "type": "Feature", "properties": { "grid_id": "19_15", "col": 19, "row": 15, "outlet_count": 19 }, "geometry": { "type": "Polygon", "coordinates": [ [ [ 34.770075039981094, -0.099513535650548 ], [ 34.770074804392777, -0.094992052039557 ], [ 34.76558357757785, -0.094992283408346 ], [ 34.765583812569169, -0.099513778032176 ], [ 34.770075039981094, -0.099513535650548 ] ] ] } },
{ "type": "Feature", "properties": { "grid_id": "19_16", "col": 19, "row": 16, "outlet_count": 2 }, "geometry": { "type": "Polygon", "coordinates": [ [ [ 34.770074804392777, -0.094992052039557 ], [ 34.770074579757491, -0.090470568416129 ], [ 34.765583353511815, -0.090470788772082 ], [ 34.76558357757785, -0.094992283408346 ], [ 34.770074804392777, -0.094992052039557 ] ] ] } },
{ "type": "Feature", "properties": { "grid_id": "19_17", "col": 19, "row": 17, "outlet_count": 2 }, "geometry": { "type": "Polygon", "coordinates": [ [ [ 34.770074579757491, -0.090470568416129 ], [ 34.770074366075242, -0.085949084780855 ], [ 34.765583140371056, -0.085949294123975 ], [ 34.765583353511815, -0.090470788772082 ], [ 34.770074579757491, -0.090470568416129 ] ] ] } },
{ "type": "Feature", "properties": { "grid_id": "19_18", "col": 19, "row": 18, "outlet_count": 1 }, "geometry": { "type": "Polygon", "coordinates": [ [ [ 34.770074366075242, -0.085949084780855 ], [ 34.77007416334601, -0.081427601134327 ], [ 34.765582938155561, -0.081427799464616 ], [ 34.765583140371056, -0.085949294123975 ], [ 34.770074366075242, -0.085949084780855 ] ] ] } },
{ "type": "Feature", "properties": { "grid_id": "19_19", "col": 19, "row": 19, "outlet_count": 16 }, "geometry": { "type": "Polygon", "coordinates": [ [ [ 34.77007416334601, -0.081427601134327 ], [ 34.770073971569801, -0.076906117477138 ], [ 34.76558274686532, -0.076906304794598 ], [ 34.765582938155561, -0.081427799464616 ], [ 34.77007416334601, -0.081427601134327 ] ] ] } },
{ "type": "Feature", "properties": { "grid_id": "19_23", "col": 19, "row": 23, "outlet_count": 1 }, "geometry": { "type": "Polygon", "coordinates": [ [ [ 34.770073461959214, -0.063341666447519 ], [ 34.770073313995013, -0.058820182753602 ], [ 34.76558209095689, -0.058820326019768 ], [ 34.765582238546138, -0.063341820726505 ], [ 34.770073461959214, -0.063341666447519 ] ] ] } },
{ "type": "Feature", "properties": { "grid_id": "20_13", "col": 20, "row": 13, "outlet_count": 6 }, "geometry": { "type": "Polygon", "coordinates": [ [ [ 34.774566761753022, -0.108556237754654 ], [ 34.774566503606096, -0.104034765211103 ], [ 34.770075286522463, -0.104035019248508 ], [ 34.770075544016876, -0.108556502832847 ], [ 34.774566761753022, -0.108556237754654 ] ] ] } },
{ "type": "Feature", "properties": { "grid_id": "20_15", "col": 20, "row": 15, "outlet_count": 3 }, "geometry": { "type": "Polygon", "coordinates": [ [ [ 34.774566256439982, -0.099513292653927 ], [ 34.774566020254667, -0.094991820083718 ], [ 34.770074804392777, -0.094992052039557 ], [ 34.770075039981094, -0.099513535650548 ], [ 34.774566256439982, -0.099513292653927 ] ] ] } },
{ "type": "Feature", "properties": { "grid_id": "20_17", "col": 20, "row": 17, "outlet_count": 2 }, "geometry": { "type": "Polygon", "coordinates": [ [ [ 34.774565795050144, -0.090470347501069 ], [ 34.774565580826405, -0.085948874906572 ], [ 34.770074366075242, -0.085949084780855 ], [ 34.770074579757491, -0.090470568416129 ], [ 34.774565795050144, -0.090470347501069 ] ] ] } },
{ "type": "Feature", "properties": { "grid_id": "20_18", "col": 20, "row": 18, "outlet_count": 28 }, "geometry": { "type": "Polygon", "coordinates": [ [ [ 34.774565580826405, -0.085948874906572 ], [ 34.77456537758345, -0.081427402300818 ], [ 34.77007416334601, -0.081427601134327 ], [ 34.770074366075242, -0.085949084780855 ], [ 34.774565580826405, -0.085948874906572 ] ] ] } },
{ "type": "Feature", "properties": { "grid_id": "20_19", "col": 20, "row": 19, "outlet_count": 15 }, "geometry": { "type": "Polygon", "coordinates": [ [ [ 34.77456537758345, -0.081427402300818 ], [ 34.774565185321265, -0.076905929684399 ], [ 34.770073971569801, -0.076906117477138 ], [ 34.77007416334601, -0.081427601134327 ], [ 34.77456537758345, -0.081427402300818 ] ] ] } },
{ "type": "Feature", "properties": { "grid_id": "20_23", "col": 20, "row": 23, "outlet_count": 1 }, "geometry": { "type": "Polygon", "coordinates": [ [ [ 34.774564674419295, -0.063341511777082 ], [ 34.774564526080141, -0.058820039123929 ], [ 34.770073313995013, -0.058820182753602 ], [ 34.770073461959214, -0.063341666447519 ], [ 34.774564674419295, -0.063341511777082 ] ] ] } },
{ "type": "Feature", "properties": { "grid_id": "21_14", "col": 21, "row": 14, "outlet_count": 1 }, "geometry": { "type": "Polygon", "coordinates": [ [ [ 34.779057709708923, -0.10403451053077 ], [ 34.779057461918065, -0.099513049042321 ], [ 34.774566256439982, -0.099513292653927 ], [ 34.774566503606096, -0.104034765211103 ], [ 34.779057709708923, -0.10403451053077 ] ] ] } },
{ "type": "Feature", "properties": { "grid_id": "21_15", "col": 21, "row": 15, "outlet_count": 15 }, "geometry": { "type": "Polygon", "coordinates": [ [ [ 34.779057461918065, -0.099513049042321 ], [ 34.779057225135759, -0.094991587540837 ], [ 34.774566020254667, -0.094991820083718 ], [ 34.774566256439982, -0.099513292653927 ], [ 34.779057461918065, -0.099513049042321 ] ] ] } },
{ "type": "Feature", "properties": { "grid_id": "21_16", "col": 21, "row": 16, "outlet_count": 5 }, "geometry": { "type": "Polygon", "coordinates": [ [ [ 34.779057225135759, -0.094991587540837 ], [ 34.779056999362005, -0.090470126026909 ], [ 34.774565795050144, -0.090470347501069 ], [ 34.774566020254667, -0.094991820083718 ], [ 34.779057225135759, -0.094991587540837 ] ] ] } },
{ "type": "Feature", "properties": { "grid_id": "21_17", "col": 21, "row": 17, "outlet_count": 8 }, "geometry": { "type": "Polygon", "coordinates": [ [ [ 34.779056999362005, -0.090470126026909 ], [ 34.77905678459679, -0.08594866450113 ], [ 34.774565580826405, -0.085948874906572 ], [ 34.774565795050144, -0.090470347501069 ], [ 34.779056999362005, -0.090470126026909 ] ] ] } },
{ "type": "Feature", "properties": { "grid_id": "21_18", "col": 21, "row": 18, "outlet_count": 42 }, "geometry": { "type": "Polygon", "coordinates": [ [ [ 34.77905678459679, -0.08594866450113 ], [ 34.77905658084012, -0.081427202964092 ], [ 34.77456537758345, -0.081427402300818 ], [ 34.774565580826405, -0.085948874906572 ], [ 34.77905678459679, -0.08594866450113 ] ] ] } },
{ "type": "Feature", "properties": { "grid_id": "21_19", "col": 21, "row": 19, "outlet_count": 6 }, "geometry": { "type": "Polygon", "coordinates": [ [ [ 34.77905658084012, -0.081427202964092 ], [ 34.779056388091966, -0.076905741416388 ], [ 34.774565185321265, -0.076905929684399 ], [ 34.77456537758345, -0.081427402300818 ], [ 34.77905658084012, -0.081427202964092 ] ] ] } },
{ "type": "Feature", "properties": { "grid_id": "21_20", "col": 21, "row": 20, "outlet_count": 8 }, "geometry": { "type": "Polygon", "coordinates": [ [ [ 34.779056388091966, -0.076905741416388 ], [ 34.779056206352337, -0.072384279858609 ], [ 34.77456500403985, -0.072384457057909 ], [ 34.774565185321265, -0.076905929684399 ], [ 34.779056388091966, -0.076905741416388 ] ] ] } },
{ "type": "Feature", "properties": { "grid_id": "21_23", "col": 21, "row": 23, "outlet_count": 1 }, "geometry": { "type": "Polygon", "coordinates": [ [ [ 34.779055875898621, -0.063341356715199 ], [ 34.779055727184527, -0.058819895130751 ], [ 34.774564526080141, -0.058820039123929 ], [ 34.774564674419295, -0.063341511777082 ], [ 34.779055875898621, -0.063341356715199 ] ] ] } },
{ "type": "Feature", "properties": { "grid_id": "21_24", "col": 21, "row": 24, "outlet_count": 2 }, "geometry": { "type": "Polygon", "coordinates": [ [ [ 34.779055727184527, -0.058819895130751 ], [ 34.779055589478936, -0.054298433538599 ], [ 34.774564388721743, -0.054298566463072 ], [ 34.774564526080141, -0.058820039123929 ], [ 34.779055727184527, -0.058819895130751 ] ] ] } },
{ "type": "Feature", "properties": { "grid_id": "21_25", "col": 21, "row": 25, "outlet_count": 1 }, "geometry": { "type": "Polygon", "coordinates": [ [ [ 34.779055589478936, -0.054298433538599 ], [ 34.779055462781841, -0.049776971939334 ], [ 34.774564262344086, -0.049777093795104 ], [ 34.774564388721743, -0.054298566463072 ], [ 34.779055589478936, -0.054298433538599 ] ] ] } },
{ "type": "Feature", "properties": { "grid_id": "22_13", "col": 22, "row": 13, "outlet_count": 1 }, "geometry": { "type": "Polygon", "coordinates": [ [ [ 34.783549164255099, -0.108555705585666 ], [ 34.783548904803183, -0.104034255207517 ], [ 34.779057709708923, -0.10403451053077 ], [ 34.779057968508347, -0.108555972005591 ], [ 34.783549164255099, -0.108555705585666 ] ] ] } },
{ "type": "Feature", "properties": { "grid_id": "22_15", "col": 22, "row": 15, "outlet_count": 11 }, "geometry": { "type": "Polygon", "coordinates": [ [ [ 34.783548656387595, -0.099512804815738 ], [ 34.783548419008312, -0.094991354410919 ], [ 34.779057225135759, -0.094991587540837 ], [ 34.779057461918065, -0.099513049042321 ], [ 34.783548656387595, -0.099512804815738 ] ] ] } },
{ "type": "Feature", "properties": { "grid_id": "22_16", "col": 22, "row": 16, "outlet_count": 7 }, "geometry": { "type": "Polygon", "coordinates": [ [ [ 34.783548419008312, -0.094991354410919 ], [ 34.783548192665329, -0.090469903993655 ], [ 34.779056999362005, -0.090470126026909 ], [ 34.779057225135759, -0.094991587540837 ], [ 34.783548419008312, -0.094991354410919 ] ] ] } },
{ "type": "Feature", "properties": { "grid_id": "22_17", "col": 22, "row": 17, "outlet_count": 11 }, "geometry": { "type": "Polygon", "coordinates": [ [ [ 34.783548192665329, -0.090469903993655 ], [ 34.783547977358644, -0.085948453564536 ], [ 34.77905678459679, -0.08594866450113 ], [ 34.779056999362005, -0.090470126026909 ], [ 34.783548192665329, -0.090469903993655 ] ] ] } },
{ "type": "Feature", "properties": { "grid_id": "22_18", "col": 22, "row": 18, "outlet_count": 7 }, "geometry": { "type": "Polygon", "coordinates": [ [ [ 34.783547977358644, -0.085948453564536 ], [ 34.783547773088252, -0.081427003124157 ], [ 34.77905658084012, -0.081427202964092 ], [ 34.77905678459679, -0.08594866450113 ], [ 34.783547977358644, -0.085948453564536 ] ] ] } },
{ "type": "Feature", "properties": { "grid_id": "22_19", "col": 22, "row": 19, "outlet_count": 9 }, "geometry": { "type": "Polygon", "coordinates": [ [ [ 34.783547773088252, -0.081427003124157 ], [ 34.783547579854137, -0.076905552673108 ], [ 34.779056388091966, -0.076905741416388 ], [ 34.77905658084012, -0.081427202964092 ], [ 34.783547773088252, -0.081427003124157 ] ] ] } },
{ "type": "Feature", "properties": { "grid_id": "22_20", "col": 22, "row": 20, "outlet_count": 35 }, "geometry": { "type": "Polygon", "coordinates": [ [ [ 34.783547579854137, -0.076905552673108 ], [ 34.783547397656299, -0.072384102211984 ], [ 34.779056206352337, -0.072384279858609 ], [ 34.779056388091966, -0.076905741416388 ], [ 34.783547579854137, -0.076905552673108 ] ] ] } },
{ "type": "Feature", "properties": { "grid_id": "22_21", "col": 22, "row": 21, "outlet_count": 5 }, "geometry": { "type": "Polygon", "coordinates": [ [ [ 34.783547397656299, -0.072384102211984 ], [ 34.78354722649474, -0.067862651741375 ], [ 34.779056035621224, -0.067862818291349 ], [ 34.779056206352337, -0.072384279858609 ], [ 34.783547397656299, -0.072384102211984 ] ] ] } },
{ "type": "Feature", "properties": { "grid_id": "22_23", "col": 22, "row": 23, "outlet_count": 4 }, "geometry": { "type": "Polygon", "coordinates": [ [ [ 34.783547066369444, -0.063341201261874 ], [ 34.783546917280404, -0.058819750774075 ], [ 34.779055727184527, -0.058819895130751 ], [ 34.779055875898621, -0.063341356715199 ], [ 34.783547066369444, -0.063341201261874 ] ] ] } },
{ "type": "Feature", "properties": { "grid_id": "22_24", "col": 22, "row": 24, "outlet_count": 4 }, "geometry": { "type": "Polygon", "coordinates": [ [ [ 34.783546917280404, -0.058819750774075 ], [ 34.783546779227628, -0.054298300278568 ], [ 34.779055589478936, -0.054298433538599 ], [ 34.779055727184527, -0.058819895130751 ], [ 34.783546917280404, -0.058819750774075 ] ] ] } },
{ "type": "Feature", "properties": { "grid_id": "23_11", "col": 23, "row": 11, "outlet_count": 4 }, "geometry": { "type": "Polygon", "coordinates": [ [ [ 34.788040902366568, -0.117598316958686 ], [ 34.788040620134005, -0.113076877734196 ], [ 34.783549434743335, -0.113077155949592 ], [ 34.783549716267913, -0.117598606298702 ], [ 34.788040902366568, -0.117598316958686 ] ] ] } },
{ "type": "Feature", "properties": { "grid_id": "23_13", "col": 23, "row": 13, "outlet_count": 1 }, "geometry": { "type": "Polygon", "coordinates": [ [ [ 34.788040348965524, -0.108555438494888 ], [ 34.788040088861131, -0.104033999241353 ], [ 34.783548904803183, -0.104034255207517 ], [ 34.783549164255099, -0.108555705585666 ], [ 34.788040348965524, -0.108555438494888 ] ] ] } },
{ "type": "Feature", "properties": { "grid_id": "23_18", "col": 23, "row": 18, "outlet_count": 1 }, "geometry": { "type": "Polygon", "coordinates": [ [ [ 34.788039159084207, -0.085948242096798 ], [ 34.788038954300106, -0.081426802781018 ], [ 34.783547773088252, -0.081427003124157 ], [ 34.783547977358644, -0.085948453564536 ], [ 34.788039159084207, -0.085948242096798 ] ] ] } },
{ "type": "Feature", "properties": { "grid_id": "23_19", "col": 23, "row": 19, "outlet_count": 51 }, "geometry": { "type": "Polygon", "coordinates": [ [ [ 34.788038954300106, -0.081426802781018 ], [ 34.788038760580037, -0.076905363454568 ], [ 34.783547579854137, -0.076905552673108 ], [ 34.783547773088252, -0.081427003124157 ], [ 34.788038954300106, -0.081426802781018 ] ] ] } },
{ "type": "Feature", "properties": { "grid_id": "23_20", "col": 23, "row": 20, "outlet_count": 2 }, "geometry": { "type": "Polygon", "coordinates": [ [ [ 34.788038760580037, -0.076905363454568 ], [ 34.788038577923999, -0.072383924118038 ], [ 34.783547397656299, -0.072384102211984 ], [ 34.783547579854137, -0.076905552673108 ], [ 34.788038760580037, -0.076905363454568 ] ] ] } },
{ "type": "Feature", "properties": { "grid_id": "23_23", "col": 23, "row": 23, "outlet_count": 3 }, "geometry": { "type": "Polygon", "coordinates": [ [ [ 34.788038245804003, -0.063341045417114 ], [ 34.788038096340031, -0.058819606053904 ], [ 34.783546917280404, -0.058819750774075 ], [ 34.783547066369444, -0.063341201261874 ], [ 34.788038245804003, -0.063341045417114 ] ] ] } },
{ "type": "Feature", "properties": { "grid_id": "23_24", "col": 23, "row": 24, "outlet_count": 4 }, "geometry": { "type": "Polygon", "coordinates": [ [ [ 34.788038096340031, -0.058819606053904 ], [ 34.78803795794007, -0.054298166682985 ], [ 34.783546779227628, -0.054298300278568 ], [ 34.783546917280404, -0.058819750774075 ], [ 34.788038096340031, -0.058819606053904 ] ] ] } },
{ "type": "Feature", "properties": { "grid_id": "24_9", "col": 24, "row": 9, "outlet_count": 1 }, "geometry": { "type": "Polygon", "coordinates": [ [ [ 34.792532676557791, -0.12664088298896 ], [ 34.792532371433524, -0.122119454948454 ], [ 34.788041195663226, -0.122119756167764 ], [ 34.788041500023994, -0.126641195360838 ], [ 34.792532676557791, -0.12664088298896 ] ] ] } },
{ "type": "Feature", "properties": { "grid_id": "24_10", "col": 24, "row": 10, "outlet_count": 1 }, "geometry": { "type": "Polygon", "coordinates": [ [ [ 34.792532371433524, -0.122119454948454 ], [ 34.792532077401127, -0.117598026891942 ], [ 34.788040902366568, -0.117598316958686 ], [ 34.788041195663226, -0.122119756167764 ], [ 34.792532371433524, -0.122119454948454 ] ] ] } },
{ "type": "Feature", "properties": { "grid_id": "24_11", "col": 24, "row": 11, "outlet_count": 1 }, "geometry": { "type": "Polygon", "coordinates": [ [ [ 34.792532077401127, -0.117598026891942 ], [ 34.792531794460579, -0.113076598820014 ], [ 34.788040620134005, -0.113076877734196 ], [ 34.788040902366568, -0.117598316958686 ], [ 34.792532077401127, -0.117598026891942 ] ] ] } },
{ "type": "Feature", "properties": { "grid_id": "24_19", "col": 24, "row": 19, "outlet_count": 2 }, "geometry": { "type": "Polygon", "coordinates": [ [ [ 34.792530124447921, -0.081426601934683 ], [ 34.792529930241905, -0.076905173760771 ], [ 34.788038760580037, -0.076905363454568 ], [ 34.788038954300106, -0.081426802781018 ], [ 34.792530124447921, -0.081426601934683 ] ] ] } },
{ "type": "Feature", "properties": { "grid_id": "24_20", "col": 24, "row": 20, "outlet_count": 1 }, "geometry": { "type": "Polygon", "coordinates": [ [ [ 34.792529930241905, -0.076905173760771 ], [ 34.792529747127674, -0.072383745576779 ], [ 34.788038577923999, -0.072383924118038 ], [ 34.788038760580037, -0.076905363454568 ], [ 34.792529930241905, -0.076905173760771 ] ] ] } },
{ "type": "Feature", "properties": { "grid_id": "24_24", "col": 24, "row": 24, "outlet_count": 1 }, "geometry": { "type": "Polygon", "coordinates": [ [ [ 34.792529264335641, -0.058819460970242 ], [ 34.792529125588509, -0.054298032751853 ], [ 34.78803795794007, -0.054298166682985 ], [ 34.788038096340031, -0.058819606053904 ], [ 34.792529264335641, -0.058819460970242 ] ] ] } },
{ "type": "Feature", "properties": { "grid_id": "24_25", "col": 24, "row": 25, "outlet_count": 2 }, "geometry": { "type": "Polygon", "coordinates": [ [ [ 34.792529125588509, -0.054298032751853 ], [ 34.792528997933125, -0.049776604526346 ], [ 34.788037830604118, -0.049776727304951 ], [ 34.78803795794007, -0.054298166682985 ], [ 34.792529125588509, -0.054298032751853 ] ] ] } },
{ "type": "Feature", "properties": { "grid_id": "25_0", "col": 25, "row": 0, "outlet_count": 1 }, "geometry": { "type": "Polygon", "coordinates": [ [ [ 34.79702709537375, -0.167333320756117 ], [ 34.797026689409009, -0.162811904066899 ], [ 34.79253551686007, -0.162812306665603 ], [ 34.792535921811549, -0.167333734535368 ], [ 34.79702709537375, -0.167333320756117 ] ] ] } },
{ "type": "Feature", "properties": { "grid_id": "25_7", "col": 25, "row": 7, "outlet_count": 1 }, "geometry": { "type": "Polygon", "coordinates": [ [ [ 34.797024487134081, -0.135683403504065 ], [ 34.79702415900708, -0.131161986677871 ], [ 34.792532992773921, -0.131162311012864 ], [ 34.79253332008193, -0.135683739019576 ], [ 34.797024487134081, -0.135683403504065 ] ] ] } },
{ "type": "Feature", "properties": { "grid_id": "25_20", "col": 25, "row": 20, "outlet_count": 3 }, "geometry": { "type": "Polygon", "coordinates": [ [ [ 34.797021088811981, -0.076904983591725 ], [ 34.797020905239563, -0.07238356658821 ], [ 34.792529747127674, -0.072383745576779 ], [ 34.792529930241905, -0.076905173760771 ], [ 34.797021088811981, -0.076904983591725 ] ] ] } },
{ "type": "Feature", "properties": { "grid_id": "25_25", "col": 25, "row": 25, "outlet_count": 1 }, "geometry": { "type": "Polygon", "coordinates": [ [ [ 34.797020282145184, -0.054297898485176 ], [ 34.79702015417039, -0.049776481440137 ], [ 34.792528997933125, -0.049776604526346 ], [ 34.792529125588509, -0.054298032751853 ], [ 34.797020282145184, -0.054297898485176 ] ] ] } },
{ "type": "Feature", "properties": { "grid_id": "25_29", "col": 25, "row": 29, "outlet_count": 1 }, "geometry": { "type": "Polygon", "coordinates": [ [ [ 34.797019836963045, -0.036212230268236 ], [ 34.79701975346628, -0.031690813200649 ], [ 34.792528598229161, -0.031690891564996 ], [ 34.792528681517531, -0.036212319813047 ], [ 34.797019836963045, -0.036212230268236 ] ] ] } },
{ "type": "Feature", "properties": { "grid_id": "26_6", "col": 26, "row": 6, "outlet_count": 3 }, "geometry": { "type": "Polygon", "coordinates": [ [ [ 34.801515983159966, -0.140204472750022 ], [ 34.80151564306658, -0.13568306715008 ], [ 34.797024487134081, -0.135683403504065 ], [ 34.797024826380721, -0.14020482031247 ], [ 34.801515983159966, -0.140204472750022 ] ] ] } },
{ "type": "Feature", "properties": { "grid_id": "26_18", "col": 26, "row": 18, "outlet_count": 4 }, "geometry": { "type": "Polygon", "coordinates": [ [ [ 34.801512637765612, -0.085947604506777 ], [ 34.801512431440422, -0.081426198732445 ], [ 34.797021283503938, -0.081426400585156 ], [ 34.797021489315441, -0.085947817567912 ], [ 34.801512637765612, -0.085947604506777 ] ] ] } },
{ "type": "Feature", "properties": { "grid_id": "26_20", "col": 26, "row": 20, "outlet_count": 1 }, "geometry": { "type": "Polygon", "coordinates": [ [ [ 34.801512236262518, -0.076904792947434 ], [ 34.801512052231921, -0.072383387152338 ], [ 34.797020905239563, -0.07238356658821 ], [ 34.797021088811981, -0.076904983591725 ], [ 34.801512236262518, -0.076904792947434 ] ] ] } },
{ "type": "Feature", "properties": { "grid_id": "27_4", "col": 27, "row": 4, "outlet_count": 1 }, "geometry": { "type": "Polygon", "coordinates": [ [ [ 34.806007844197502, -0.149246912992486 ], [ 34.806007480907063, -0.14472551866632 ], [ 34.801516334400759, -0.144725878331578 ], [ 34.801516696788966, -0.149247283894155 ], [ 34.806007844197502, -0.149246912992486 ] ] ] } },
{ "type": "Feature", "properties": { "grid_id": "27_26", "col": 27, "row": 26, "outlet_count": 2 }, "geometry": { "type": "Polygon", "coordinates": [ [ [ 34.806002433258605, -0.049776234344924 ], [ 34.806002315820002, -0.045254839738116 ], [ 34.801511182141184, -0.045254952203172 ], [ 34.80151129928813, -0.049776358046329 ], [ 34.806002433258605, -0.049776234344924 ] ] ] } },
{ "type": "Feature", "properties": { "grid_id": "28_21", "col": 28, "row": 21, "outlet_count": 6 }, "geometry": { "type": "Polygon", "coordinates": [ [ [ 34.810494312747018, -0.072383026938706 ], [ 34.810494139002856, -0.067861643634771 ], [ 34.806003014763249, -0.067861812700936 ], [ 34.806003188076986, -0.072383207269168 ], [ 34.810494312747018, -0.072383026938706 ] ] ] } },
{ "type": "Feature", "properties": { "grid_id": "28_25", "col": 28, "row": 25, "outlet_count": 1 }, "geometry": { "type": "Polygon", "coordinates": [ [ [ 34.810493684987101, -0.054297493671917 ], [ 34.81049355605407, -0.049776110335928 ], [ 34.806002433258605, -0.049776234344924 ], [ 34.806002561872234, -0.054297628945204 ], [ 34.810493684987101, -0.054297493671917 ] ] ] } },
{ "type": "Feature", "properties": { "grid_id": "28_26", "col": 28, "row": 26, "outlet_count": 1 }, "geometry": { "type": "Polygon", "coordinates": [ [ [ 34.81049355605407, -0.049776110335928 ], [ 34.810493438323803, -0.045254726993407 ], [ 34.806002315820002, -0.045254839738116 ], [ 34.806002433258605, -0.049776234344924 ], [ 34.81049355605407, -0.049776110335928 ] ] ] } },
{ "type": "Feature", "properties": { "grid_id": "29_21", "col": 29, "row": 21, "outlet_count": 4 }, "geometry": { "type": "Polygon", "coordinates": [ [ [ 34.81498542621425, -0.072382846160957 ], [ 34.814985252039676, -0.067861474149259 ], [ 34.810494139002856, -0.067861643634771 ], [ 34.810494312747018, -0.072383026938706 ], [ 34.81498542621425, -0.072382846160957 ] ] ] } },
{ "type": "Feature", "properties": { "grid_id": "29_26", "col": 29, "row": 26, "outlet_count": 1 }, "geometry": { "type": "Polygon", "coordinates": [ [ [ 34.814984667646755, -0.049775986019342 ], [ 34.814984549624846, -0.045254613969049 ], [ 34.810493438323803, -0.045254726993407 ], [ 34.81049355605407, -0.049776110335928 ], [ 34.814984667646755, -0.049775986019342 ] ] ] } },
{ "type": "Feature", "properties": { "grid_id": "30_23", "col": 30, "row": 23, "outlet_count": 1 }, "geometry": { "type": "Polygon", "coordinates": [ [ [ 34.819476190499273, -0.063339943543974 ], [ 34.819476038410876, -0.058818582835229 ], [ 34.814984937382157, -0.058818730099738 ], [ 34.81498508909565, -0.063340102128654 ], [ 34.819476190499273, -0.063339943543974 ] ] ] } },
{ "type": "Feature", "properties": { "grid_id": "32_3", "col": 32, "row": 3, "outlet_count": 4 }, "geometry": { "type": "Polygon", "coordinates": [ [ [ 34.828463792172762, -0.153766382355685 ], [ 34.828463413057385, -0.149245044650269 ], [ 34.823972321802295, -0.149245420163191 ], [ 34.823972699987742, -0.15376676924472 ], [ 34.828463792172762, -0.153766382355685 ] ] ] } },
{ "type": "Feature", "properties": { "grid_id": "32_4", "col": 32, "row": 4, "outlet_count": 2 }, "geometry": { "type": "Polygon", "coordinates": [ [ [ 34.828463413057385, -0.149245044650269 ], [ 34.828463045255951, -0.144723706925254 ], [ 34.823971954903037, -0.144724071062067 ], [ 34.823972321802295, -0.149245420163191 ], [ 34.828463413057385, -0.149245044650269 ] ] ] } },
{ "type": "Feature", "properties": { "grid_id": "33_3", "col": 33, "row": 3, "outlet_count": 1 }, "geometry": { "type": "Polygon", "coordinates": [ [ [ 34.832954873043818, -0.153765994516497 ], [ 34.832954492998525, -0.149244668215132 ], [ 34.828463413057385, -0.149245044650269 ], [ 34.828463792172762, -0.153766382355685 ], [ 34.832954873043818, -0.153765994516497 ] ] ] } },
{ "type": "Feature", "properties": { "grid_id": "34_2", "col": 34, "row": 2, "outlet_count": 1 }, "geometry": { "type": "Polygon", "coordinates": [ [ [ 34.837446334917828, -0.15828692057634 ], [ 34.837445942573169, -0.153765605727166 ], [ 34.832954873043818, -0.153765994516497 ], [ 34.832955264430822, -0.158287320797665 ], [ 34.837446334917828, -0.15828692057634 ] ] ] } },
{ "type": "Feature", "properties": { "grid_id": "36_14", "col": 36, "row": 14, "outlet_count": 1 }, "geometry": { "type": "Polygon", "coordinates": [ [ [ 34.84642446468159, -0.104030613179819 ], [ 34.846424207520506, -0.099509321075135 ], [ 34.841933170084872, -0.099509573910611 ], [ 34.841933426621331, -0.104030877503118 ], [ 34.84642446468159, -0.104030613179819 ] ] ] } },
{ "type": "Feature", "properties": { "grid_id": "36_15", "col": 36, "row": 15, "outlet_count": 1 }, "geometry": { "type": "Polygon", "coordinates": [ [ [ 34.846424207520506, -0.099509321075135 ], [ 34.846423961784268, -0.09498802895737 ], [ 34.84193292494551, -0.094988270305027 ], [ 34.841933170084872, -0.099509573910611 ], [ 34.846424207520506, -0.099509321075135 ] ] ] } },
{ "type": "Feature", "properties": { "grid_id": "37_14", "col": 37, "row": 14, "outlet_count": 1 }, "geometry": { "type": "Polygon", "coordinates": [ [ [ 34.850915491316997, -0.104030348213721 ], [ 34.850915233531296, -0.099509067624796 ], [ 34.846424207520506, -0.099509321075135 ], [ 34.84642446468159, -0.104030613179819 ], [ 34.850915491316997, -0.104030348213721 ] ] ] } },
{ "type": "Feature", "properties": { "grid_id": "37_15", "col": 37, "row": 15, "outlet_count": 1 }, "geometry": { "type": "Polygon", "coordinates": [ [ [ 34.850915233531296, -0.099509067624796 ], [ 34.850914987198188, -0.094987787022788 ], [ 34.846423961784268, -0.09498802895737 ], [ 34.846424207520506, -0.099509321075135 ], [ 34.850915233531296, -0.099509067624796 ] ] ] } },
{ "type": "Feature", "properties": { "grid_id": "40_2", "col": 40, "row": 2, "outlet_count": 4 }, "geometry": { "type": "Polygon", "coordinates": [ [ [ 34.864392518109639, -0.158284498709392 ], [ 34.864392120019311, -0.15376325303886 ], [ 34.859901119122988, -0.153763647528794 ], [ 34.859901516255739, -0.158284904798941 ], [ 34.864392518109639, -0.158284498709392 ] ] ] } },
{ "type": "Feature", "properties": { "grid_id": "42_14", "col": 42, "row": 14, "outlet_count": 2 }, "geometry": { "type": "Polygon", "coordinates": [ [ [ 34.873370452150034, -0.104029013741514 ], [ 34.873370191241357, -0.099507791150426 ], [ 34.868879222771028, -0.099508047674964 ], [ 34.868879483055125, -0.10402928192149 ], [ 34.873370452150034, -0.104029013741514 ] ] ] } }
]
}
